[{"OBJECT_NAME":"STARLINK-34519","OBJECT_ID":"2025-137Q","EPOCH":"2026-03-09T22:31:30.999936","MEAN_MOTION":15.30165623,"ECCENTRICITY":0.00012048,"INCLINATION":53.1599,"RA_OF_ASC_NODE":334.0375,"ARG_OF_PERICENTER":90.559,"MEAN_ANOMALY":269.5548,"EPHEMERIS_TYPE":0,"CLASSIFICATION_TYPE":"U","NORAD_CAT_ID":64608,"ELEMENT_SET_NO":999,"REV_AT_EPOCH":4077,"BSTAR":0.0005809309,"MEAN_MOTION_DOT":0.00016867,"MEAN_MOTION_DDOT":0},{"OBJECT_NAME":"COSMOS 1862","OBJECT_ID":"1987-055A","EPOCH":"2026-03-09T22:37:02.390592","MEAN_MOTION":15.30492139,"ECCENTRICITY":0.00097484,"INCLINATION":82.4856,"RA_OF_ASC_NODE":47.1862,"ARG_OF_PERICENTER":26.6325,"MEAN_ANOMALY":333.5414,"EPHEMERIS_TYPE":0,"CLASSIFICATION_TYPE":"U","NORAD_CAT_ID":18152,"ELEMENT_SET_NO":999,"REV_AT_EPOCH":8987,"BSTAR":0.00034125048,"MEAN_MOTION_DOT":0.00010107,"MEAN_MOTION_DDOT":0}]
